STARLINK-2254           
1 48005C 21024AE  22025.48974682  .00000843  00000-0  56478-4 0   254
2 48005  53.0515 219.2411 0001439  74.5089 175.8408 15.06380835    11
STARLINK-2271           
1 48008C 21024AH  22025.48683860  .00001139  00000-0  76356-4 0   258
2 48008  53.0529 154.2320 0002271  87.8713  29.3146 15.06388129    18
STARLINK-2153           
1 48009C 21024AJ  22025.50364151  .00001419  00000-0  95065-4 0   250
2 48009  53.0532 229.1325 0001942  61.8966 188.7990 15.06395694    18
STARLINK-2226           
1 48010C 21024AK  22025.50212560  .00005071  00000-0  33970-3 0   252
2 48010  53.0518 249.1747 0001916  70.6879 101.8125 15.06396610    11
STARLINK-2272           
1 48011C 21024AL  22025.47101885  .00004227  00000-0  28324-3 0   255
2 48011  53.0549 229.3172 0001987  74.9913 163.6584 15.06392017    14
STARLINK-2216           
1 48012C 21024AM  22025.49171574  .00342469  00000-0  18299-1 0   251
2 48012  53.0543 203.8663 0001419  40.6458 107.7967 15.14251118    14
STARLINK-2243           
1 48013C 21024AN  22025.49793330  .00001960  00000-0  13132-3 0   253
2 48013  53.0525 214.2038 0002174  77.4041 184.7963 15.06402648    10
STARLINK-2283           
1 48014C 21024AP  22025.50102406 -.00006750  00000-0 -46238-3 0   251
2 48014  53.0520 178.1361 0001975  80.5214  22.7232 15.05586673    18
STARLINK-2284           
1 48016C 21024AR  22025.50138152 -.00000194  00000-0 -12992-4 0   257
2 48016  53.0533 164.1710 0001575  69.6429  71.4826 15.06381527    11
STARLINK-2239           
1 48017C 21024AS  22025.50315270  .00588354  00000-0  16279-1 0   252
2 48017  53.0534 225.1476 0001843  39.8945  42.3724 15.35850873    11
STARLINK-2282           
1 48018C 21024AT  22025.49931012 -.00013701  00000-0 -91812-3 0   258
2 48018  53.0532 234.1850 0002108  69.9530 114.8628 15.06406834    15
STARLINK-2285           
1 48019C 21024AU  22025.47431276  .00001609  00000-0  10779-3 0   259
2 48019  53.0536 224.3138 0002065  73.2754 145.8152 15.06396955    16
STARLINK-2294           
1 48020C 21024AV  22025.49219691  .00000134  00000-0  89566-5 0   252
2 48020  53.0534 179.2119 0001848  79.3290 209.3894 15.06405558    12
STARLINK-2301           
1 48021C 21024AW  22025.50393169 -.00019592  00000-0 -13129-2 0   257
2 48021  53.0543 184.1717 0002240  82.9619 356.8426 15.06409778    11
STARLINK-2298           
1 48022C 21024AX  22025.50070032  .00002627  00000-0  17608-3 0   255
2 48022  53.0534 244.1902 0001902  60.7050 356.6531 15.06383886    18
STARLINK-2292           
1 48023C 21024AY  22025.48261916  .00003231  00000-0  21651-3 0   251
2 48023  53.0536 244.2623 0002026  67.9151 166.2052 15.06391760    14
STARLINK-2278           
1 48026C 21024BB  22025.49463465  .00029165  00000-0  19552-2 0   258
2 48026  53.0486 249.2256 0002036  64.9594 346.8758 15.06347617    18
STARLINK-2300           
1 48027C 21024BC  22025.49112889  .00001170  00000-0  78445-4 0   254
2 48027  53.0538 224.2312 0002065  81.5419 168.7627 15.06386269    18
STARLINK-2264           
1 48028C 21024BD  22025.47499348 -.00001543  00000-0 -10340-3 0   256
2 48028  53.0545 179.3026 0001711  77.3325  17.9629 15.06401239    17
STARLINK-2299           
1 48029C 21024BE  22025.49392148  .00005242  00000-0  35127-3 0   257
2 48029  53.0531 244.2300 0001909  72.9211 342.5740 15.06387183    16
STARLINK-2268           
1 48030C 21024BF  22025.48678435  .00002646  00000-0  17729-3 0   257
2 48030  53.0534 249.2357 0001917  66.9772 162.2926 15.06394148    14
STARLINK-2267           
1 48031C 21024BG  22025.50190725  .00005436  00000-0  36433-3 0   255
2 48031  53.0496 134.1816 0001473  59.1436  44.6851 15.06382524    17
STARLINK-2286           
1 48033C 21024BJ  22025.50451635  .00005520  00000-0  36990-3 0   259
2 48033  53.0587 244.0837 0002481  65.6506 107.3107 15.06386254    19
STARLINK-2288           
1 48034C 21024BK  22025.50173510  .00004358  00000-0  29202-3 0   259
2 48034  53.0528 244.1881 0001910  69.2392 348.6311 15.06389049    16
STARLINK-2295           
1 48036C 21024BM  22025.49356477  .00003616  00000-0  24234-3 0   250
2 48036  53.0533 244.2229 0001814  70.5543 262.9711 15.06386942    18
STARLINK-2048           
1 48092C 21027A   22025.44982004 -.00047289  00000-0 -31700-2 0   252
2 48092  53.0559   9.4071 0001353  79.1710 134.6311 15.06428184    19
STARLINK-2404           
1 48093C 21027B   22025.46423032  .00009808  00000-0  65740-3 0   251
2 48093  53.0549  74.3584 0001394  80.1038  14.4231 15.06373495    19
STARLINK-2412           
1 48094C 21027C   22025.50137237  .00011429  00000-0  76596-3 0   259
2 48094  53.0534  84.1875 0001468  74.1540  21.7614 15.06378419    16
STARLINK-2414           
1 48095C 21027D   22025.48195822 -.00014170  00000-0 -94960-3 0   254
2 48095  53.0541  84.2833 0001483  75.0931 235.5026 15.06404244    19
STARLINK-2417           
1 48096C 21027E   22025.48209836 -.00016567  00000-0 -11100-2 0   252
2 48096  53.0541  84.2842 0001349  68.7685  22.5533 15.06415572    19
STARLINK-2418           
1 48097C 21027F   22025.46335088  .00000302  00000-0  20232-4 0   256
2 48097  53.0554  64.3566 0001316  87.3362  12.2874 15.06399023    15
STARLINK-2421           
1 48098C 21027G   22025.48244819  .00010261  00000-0  68754-3 0   255
2 48098  53.0538  74.2799 0001274  73.8251 254.4072 15.06387655    14
STARLINK-2428           
1 48099C 21027H   22025.49373948  .00010141  00000-0  67989-3 0   259
2 48099  53.0543  84.2144 0001251  73.6326  20.8995 15.06366829    11
STARLINK-2430           
1 48100C 21027J   22025.50226371  .00012507  00000-0  83800-3 0   259
2 48100  53.0540  64.1842 0001347  71.7181 279.0421 15.06384735    15
STARLINK-2436           
1 48101C 21027K   22025.48157880  .00010133  00000-0  67906-3 0   257
2 48101  53.0543  74.2781 0001377  82.3609 246.2656 15.06382492    13
STARLINK-2437           
1 48102C 21027L   22025.48229450  .00010494  00000-0  70340-3 0   257
2 48102  53.0555  64.2609 0001378  77.0000  25.4067 15.06373070    17
STARLINK-2438           
1 48103C 21027M   22025.48925212  .00008638  00000-0  57879-3 0   256
2 48103  53.0539  64.2264 0001409  84.3756  15.8054 15.06389104    15
STARLINK-2439           
1 48104C 21027N   22025.50223645  .00010304  00000-0  69071-3 0   251
2 48104  53.0537  69.1917 0001384  78.8272  24.2854 15.06371996    18
STARLINK-2440           
1 48105C 21027P   22025.49829188  .00035880  00000-0  24055-2 0   252
2 48105  53.0555  14.1909 0001623  59.9474 164.2755 15.06340055    17
STARLINK-2442           
1 48106C 21027Q   22025.45831671 -.00000188  00000-0 -12605-4 0   254
2 48106  53.0547  64.3698 0001493  79.8466  17.5393 15.06405403    15
STARLINK-2443           
1 48107C 21027R   22025.47463755  .00010966  00000-0  73483-3 0   254
2 48107  53.0550  64.2947 0001314  74.6430  26.2002 15.06384341    13
STARLINK-2444           
1 48108C 21027S   22025.48819911  .00009650  00000-0  64682-3 0   254
2 48108  53.0539  74.2475 0001385  74.6543 244.7737 15.06373034    10
STARLINK-2445           
1 48109C 21027T   22025.50363641  .00001105  00000-0  74060-4 0   251
2 48109  53.0550  84.1685 0001299  70.8776 257.3268 15.06400116    18
STARLINK-2447           
1 48110C 21027U   22025.50331574  .00010993  00000-0  73679-3 0   252
2 48110  53.0552  74.1719 0001295  78.6026  22.8535 15.06373845    19
STARLINK-2448           
1 48111C 21027V   22025.49843095  .00011513  00000-0  77149-3 0   252
2 48111  53.0545  74.2002 0001415  79.4554  20.6130 15.06383574    14
STARLINK-2449           
1 48112C 21027W   22025.47361678  .00008901  00000-0  59623-3 0   257
2 48112  53.0533  89.3105 0001389  82.0820  20.7847 15.06398898    10
STARLINK-2450           
1 48113C 21027X   22025.48990965  .00009257  00000-0  62031-3 0   258
2 48113  53.0545  84.2409 0001278  79.4983  14.1773 15.06385941    12
STARLINK-2451           
1 48114C 21027Y   22025.49407830  .00000846  00000-0  56669-4 0   250
2 48114  53.0539  79.2297 0001298  71.6864 257.2904 15.06399071    14
STARLINK-2452           
1 48115C 21027Z   22025.47951196  .00011332  00000-0  75951-3 0   254
2 48115  53.0547  74.2804 0001299  85.6089  11.8193 15.06376120    12
STARLINK-2454           
1 48116C 21027AA  22025.48592423  .00009231  00000-0  61837-3 0   253
2 48116  53.0518  84.2528 0001450  70.5025  21.5521 15.06396933    14
STARLINK-2455           
1 48117C 21027AB  22025.45849994  .00005382  00000-0  36056-3 0   257
2 48117  53.0549  64.3713 0001339  76.7602  16.4959 15.06398553    17
STARLINK-2458           
1 48118C 21027AC  22025.47098966  .00010748  00000-0  72045-3 0   255
2 48118  53.0550  64.3106 0001261  68.3193  32.7390 15.06372711    10
STARLINK-2459           
1 48119C 21027AD  22025.46613759  .00007701  00000-0  51592-3 0   257
2 48119  53.0548  64.3300 0001682  77.0914  17.6299 15.06394079    10
STARLINK-2460           
1 48120C 21027AE  22025.47099022  .00008374  00000-0  56140-3 0   252
2 48120  53.0553  84.3248 0001480  81.4408   9.6533 15.06367828    18
STARLINK-2462           
1 48121C 21027AF  22025.48627355  .00000380  00000-0  25455-4 0   255
2 48121  53.0554  74.2555 0001198  84.0255 244.8443 15.06416869    17
STARLINK-2463           
1 48122C 21027AG  22025.49170270  .00028042  00000-0  18796-2 0   259
2 48122  53.0544  69.2223 0001538  60.1010 290.9639 15.06356419    18
STARLINK-2464           
1 48123C 21027AH  22025.50052865 -.00013461  00000-0 -90215-3 0   259
2 48123  53.0545  64.1788 0001327  84.3844 276.9746 15.06402414    19
STARLINK-2465           
1 48124C 21027AJ  22025.44964604  .00008041  00000-0  53879-3 0   257
2 48124  53.0535  74.4279 0001299  66.1677  24.1009 15.06388658    16
STARLINK-2466           
1 48125C 21027AK  22025.48108137  .00010853  00000-0  72735-3 0   259
2 48125  53.0550  84.2803 0001463  70.2058 240.7701 15.06378353    14
